EUTELSAT QUANTUM        
1 49056U 21069B   26008.82009422  .00000133  00000+0  00000+0 0  9990
2 49056   0.0113  30.6323 0003512 264.3966 156.2543  1.00270232 16331
EUTELSAT KONNECT VHTS   
1 53765U 22110A   26009.14513684  .00000026  00000+0  00000+0 0  9997
2 53765   0.0580  96.8801 0002677 177.8411 248.9422  1.00274568  5249
EUTELSAT HOTBIRD 13F    
1 54048U 22134A   26008.94766781  .00000094  00000+0  00000+0 0  9998
2 54048   0.0575 286.7364 0002216  73.3895 102.4956  1.00271595 11786
EUTELSAT HOTBIRD 13G    
1 54225U 22146A   26008.94766781  .00000094  00000+0  00000+0 0  9998
2 54225   0.0502 224.5508 0001922 316.1929 281.8852  1.00271613  5873
EUTELSAT 10B            
1 54259U 22157A   26008.81264086  .00000074  00000+0  00000+0 0  9992
2 54259   0.0577  95.0268 0000423  41.7036 274.1236  1.00268733 11429
EUTELSAT 36D            
1 59346U 24059A   26008.95322550  .00000000  00000+0  00000+0 0  9992
2 59346   0.0220  50.9284 0000297 322.2874 114.2896  1.00268873  6559
